[{"OBJECT_NAME":"STARLINK-3362","OBJECT_ID":"2022-005E","EPOCH":"2026-03-09T01:08:40.233696","MEAN_MOTION":15.08834517,"ECCENTRICITY":0.00017532,"INCLINATION":53.2181,"RA_OF_ASC_NODE":292.0011,"ARG_OF_PERICENTER":83.5935,"MEAN_ANOMALY":276.5256,"EPHEMERIS_TYPE":0,"CLASSIFICATION_TYPE":"U","NORAD_CAT_ID":51108,"ELEMENT_SET_NO":999,"REV_AT_EPOCH":22878,"BSTAR":4.3594031e-5,"MEAN_MOTION_DOT":4.06e-6,"MEAN_MOTION_DDOT":0},{"OBJECT_NAME":"CZ-6A DEB","OBJECT_ID":"2024-140FV","EPOCH":"2026-03-09T14:13:09.917760","MEAN_MOTION":15.12617909,"ECCENTRICITY":0.0033796,"INCLINATION":89.006,"RA_OF_ASC_NODE":281.0752,"ARG_OF_PERICENTER":172.4402,"MEAN_ANOMALY":187.7356,"EPHEMERIS_TYPE":0,"CLASSIFICATION_TYPE":"U","NORAD_CAT_ID":60794,"ELEMENT_SET_NO":999,"REV_AT_EPOCH":8371,"BSTAR":0.0056743,"MEAN_MOTION_DOT":0.0010168,"MEAN_MOTION_DDOT":0}]
